[{"OBJECT_NAME":"TIANQI-16","OBJECT_ID":"2025-105A","EPOCH":"2026-03-09T12:21:56.157984","MEAN_MOTION":13.99115329,"ECCENTRICITY":0.0012645,"INCLINATION":44.9833,"RA_OF_ASC_NODE":105.8163,"ARG_OF_PERICENTER":266.1357,"MEAN_ANOMALY":93.803,"EPHEMERIS_TYPE":0,"CLASSIFICATION_TYPE":"U","NORAD_CAT_ID":64058,"ELEMENT_SET_NO":999,"REV_AT_EPOCH":4123,"BSTAR":0.00015431,"MEAN_MOTION_DOT":9.7e-7,"MEAN_MOTION_DDOT":0},{"OBJECT_NAME":"SL-14 DEB","OBJECT_ID":"1987-068BX","EPOCH":"2026-03-09T14:54:41.247936","MEAN_MOTION":13.9696064,"ECCENTRICITY":0.0017598,"INCLINATION":82.5525,"RA_OF_ASC_NODE":278.9748,"ARG_OF_PERICENTER":326.2614,"MEAN_ANOMALY":90.2574,"EPHEMERIS_TYPE":0,"CLASSIFICATION_TYPE":"U","NORAD_CAT_ID":25444,"ELEMENT_SET_NO":999,"REV_AT_EPOCH":41239,"BSTAR":0.00051117,"MEAN_MOTION_DOT":7.28e-6,"MEAN_MOTION_DDOT":0}]
